{"type": "FeatureCollection", "features": [ {"type": "Feature", "properties": {"norad_id": 66598, "name": "STARLINK-35981", "group": "last-30-days", "lat": 25.500545859507895, "lon": -15.184338260081889, "alt_km": 411.83829813139437, "timestamp": "2025-12-12T05:47:27.526125+00:00", "meta": {"OBJECT_NAME": "STARLINK-35981", "OBJECT_ID": "2025-270L", "EPOCH": "2025-12-11T20:00:01.999872", "MEAN_MOTION": 15.50569839, "ECCENTRICITY": 0.00015739, "INCLINATION": 42.9995, "RA_OF_ASC_NODE": 197.9914, "ARG_OF_PERICENTER": 262.1339, "MEAN_ANOMALY": 118.8727, "EPHEMERIS_TYPE": 0, "CLASSIFICATION_TYPE": "U", "NORAD_CAT_ID": 66598, "ELEMENT_SET_NO": 999, "REV_AT_EPOCH": 409, "BSTAR": -0.001604194, "MEAN_MOTION_DOT": -0.00093309, "MEAN_MOTION_DDOT": 0}, "tle": {"line1": "1 66598U 25270L   25345.83335648 -.00093309  00000+0 -16042-2 0  9999", "line2": "2 66598  42.9995 197.9914 0001573 262.1339 118.8727 15.50569839  4094"}}, "geometry": {"type": "Point", "coordinates": [-15.184338260081889, 25.500545859507895]}}, {"type": "Feature", "properties": {"norad_id": 66599, "name": "STARLINK-35930", "group": "last-30-days", "lat": 24.422067335942025, "lon": -13.56209489564576, "alt_km": 411.38517148936535, "timestamp": "2025-12-12T05:47:27.526135+00:00", "meta": {"OBJECT_NAME": "STARLINK-35930", "OBJECT_ID": "2025-270M", "EPOCH": "2025-12-11T20:00:01.999872", "MEAN_MOTION": 15.5053371, "ECCENTRICITY": 3.659e-05, "INCLINATION": 42.9995, "RA_OF_ASC_NODE": 197.988, "ARG_OF_PERICENTER": 339.7772, "MEAN_ANOMALY": 42.9993, "EPHEMERIS_TYPE": 0, "CLASSIFICATION_TYPE": "U", "NORAD_CAT_ID": 66599, "ELEMENT_SET_NO": 999, "REV_AT_EPOCH": 425, "BSTAR": 0.00099638879, "MEAN_MOTION_DOT": 0.00058454, "MEAN_MOTION_DDOT": 0}, "tle": {"line1": "1 66599U 25270M   25345.83335648  .00058454  00000+0  99639-3 0  9994", "line2": "2 66599  42.9995 197.9880 0000365 339.7772  42.9993 15.50533710  4256"}}, "geometry": {"type": "Point", "coordinates": [-13.56209489564576, 24.422067335942025]}}, {"type": "Feature", "properties": {"norad_id": 66600, "name": "STARLINK-35980", "group": "last-30-days", "lat": 23.253447032335867, "lon": -11.864294936021958, "alt_km": 412.4438527120519, "timestamp": "2025-12-12T05:47:27.526147+00:00", "meta": {"OBJECT_NAME": "STARLINK-35980", "OBJECT_ID": "2025-270N", "EPOCH": "2025-12-11T20:00:01.999872", "MEAN_MOTION": 15.50491507, "ECCENTRICITY": 0.00021707, "INCLINATION": 42.9995, "RA_OF_ASC_NODE": 197.9829, "ARG_OF_PERICENTER": 275.1693, "MEAN_ANOMALY": 109.6258, "EPHEMERIS_TYPE": 0, "CLASSIFICATION_TYPE": "U", "NORAD_CAT_ID": 66600, "ELEMENT_SET_NO": 999, "REV_AT_EPOCH": 415, "BSTAR": 0.0012367332, "MEAN_MOTION_DOT": 0.00072663, "MEAN_MOTION_DDOT": 0}, "tle": {"line1": "1 66600U 25270N   25345.83335648  .00072663  00000+0  12367-2 0  9997", "line2": "2 66600  42.9995 197.9829 0002170 275.1693 109.6258 15.50491507  4154"}}, "geometry": {"type": "Point", "coordinates": [-11.864294936021958, 23.253447032335867]}}, {"type": "Feature", "properties": {"norad_id": 66601, "name": "STARLINK-35978", "group": "last-30-days", "lat": 22.083949723720966, "lon": -10.219777753789678, "alt_km": 412.31884726629414, "timestamp": "2025-12-12T05:47:27.526157+00:00", "meta": {"OBJECT_NAME": "STARLINK-35978", "OBJECT_ID": "2025-270P", "EPOCH": "2025-12-11T20:00:01.999872", "MEAN_MOTION": 15.50500033, "ECCENTRICITY": 0.00017783, "INCLINATION": 42.9996, "RA_OF_ASC_NODE": 197.9782, "ARG_OF_PERICENTER": 269.7846, "MEAN_ANOMALY": 116.9169, "EPHEMERIS_TYPE": 0, "CLASSIFICATION_TYPE": "U", "NORAD_CAT_ID": 66601, "ELEMENT_SET_NO": 999, "REV_AT_EPOCH": 409, "BSTAR": 0.0011506895, "MEAN_MOTION_DOT": 0.00067559, "MEAN_MOTION_DDOT": 0}, "tle": {"line1": "1 66601U 25270P   25345.83335648  .00067559  00000+0  11507-2 0  9991", "line2": "2 66601  42.9996 197.9782 0001778 269.7846 116.9169 15.50500033  4096"}}, "geometry": {"type": "Point", "coordinates": [-10.219777753789678, 22.083949723720966]}}, {"type": "Feature", "properties": {"norad_id": 66602, "name": "STARLINK-36050", "group": "last-30-days", "lat": 23.496613094794697, "lon": -12.213280960473522, "alt_km": 421.46029558268583, "timestamp": "2025-12-12T05:47:27.526171+00:00", "meta": {"OBJECT_NAME": "STARLINK-36050", "OBJECT_ID": "2025-270Q", "EPOCH": "2025-12-11T20:00:01.999872", "MEAN_MOTION": 15.49156596, "ECCENTRICITY": 0.00015707, "INCLINATION": 42.9999, "RA_OF_ASC_NODE": 197.9747, "ARG_OF_PERICENTER": 266.0716, "MEAN_ANOMALY": 121.6936, "EPHEMERIS_TYPE": 0, "CLASSIFICATION_TYPE": "U", "NORAD_CAT_ID": 66602, "ELEMENT_SET_NO": 999, "REV_AT_EPOCH": 415, "BSTAR": -0.041666629, "MEAN_MOTION_DOT": -0.0206715, "MEAN_MOTION_DDOT": 0}, "tle": {"line1": "1 66602U 25270Q   25345.83335648 -.02067150  00000+0 -41667-1 0  9992", "line2": "2 66602  42.9999 197.9747 0001570 266.0716 121.6936 15.49156596  4158"}}, "geometry": {"type": "Point", "coordinates": [-12.213280960473522, 23.496613094794697]}}, {"type": "Feature", "properties": {"norad_id": 66603, "name": "STARLINK-36048", "group": "last-30-days", "lat": 19.665380489247696, "lon": -6.970524659303812, "alt_km": 412.51645454099344, "timestamp": "2025-12-12T05:47:27.526181+00:00", "meta": {"OBJECT_NAME": "STARLINK-36048", "OBJECT_ID": "2025-270R", "EPOCH": "2025-12-11T20:00:01.999872", "MEAN_MOTION": 15.50571468, "ECCENTRICITY": 0.00016261, "INCLINATION": 42.9995, "RA_OF_ASC_NODE": 197.9675, "ARG_OF_PERICENTER": 255.6309, "MEAN_ANOMALY": 134.9512, "EPHEMERIS_TYPE": 0, "CLASSIFICATION_TYPE": "U", "NORAD_CAT_ID": 66603, "ELEMENT_SET_NO": 999, "REV_AT_EPOCH": 415, "BSTAR": -0.0016550319, "MEAN_MOTION_DOT": -0.00096226, "MEAN_MOTION_DDOT": 0}, "tle": {"line1": "1 66603U 25270R   25345.83335648 -.00096226  00000+0 -16550-2 0  9991", "line2": "2 66603  42.9995 197.9675 0001626 255.6309 134.9512 15.50571468  4157"}}, "geometry": {"type": "Point", "coordinates": [-6.970524659303812, 19.665380489247696]}}, {"type": "Feature", "properties": {"norad_id": 66604, "name": "STARLINK-35977", "group": "last-30-days", "lat": 18.428110700350622, "lon": -5.375139585808634, "alt_km": 412.6820332907446, "timestamp": "2025-12-12T05:47:27.526191+00:00", "meta": {"OBJECT_NAME": "STARLINK-35977", "OBJECT_ID": "2025-270S", "EPOCH": "2025-12-11T20:00:01.999872", "MEAN_MOTION": 15.50570472, "ECCENTRICITY": 0.00012785, "INCLINATION": 42.9996, "RA_OF_ASC_NODE": 197.9627, "ARG_OF_PERICENTER": 259.6713, "MEAN_ANOMALY": 132.8633, "EPHEMERIS_TYPE": 0, "CLASSIFICATION_TYPE": "U", "NORAD_CAT_ID": 66604, "ELEMENT_SET_NO": 999, "REV_AT_EPOCH": 425, "BSTAR": -0.0017235337, "MEAN_MOTION_DOT": -0.00100138, "MEAN_MOTION_DDOT": 0}, "tle": {"line1": "1 66604U 25270S   25345.83335648 -.00100138  00000+0 -17235-2 0  9991", "line2": "2 66604  42.9996 197.9627 0001278 259.6713 132.8633 15.50570472  4258"}}, "geometry": {"type": "Point", "coordinates": [-5.375139585808634, 18.428110700350622]}}, {"type": "Feature", "properties": {"norad_id": 66605, "name": "STARLINK-36052", "group": "last-30-days", "lat": 17.252769108722056, "lon": -3.8958892566093963, "alt_km": 412.9167712951048, "timestamp": "2025-12-12T05:47:27.526201+00:00", "meta": {"OBJECT_NAME": "STARLINK-36052", "OBJECT_ID": "2025-270T", "EPOCH": "2025-12-11T20:00:01.999872", "MEAN_MOTION": 15.50485465, "ECCENTRICITY": 0.00018209, "INCLINATION": 42.9994, "RA_OF_ASC_NODE": 197.9587, "ARG_OF_PERICENTER": 270.0034, "MEAN_ANOMALY": 124.3723, "EPHEMERIS_TYPE": 0, "CLASSIFICATION_TYPE": "U", "NORAD_CAT_ID": 66605, "ELEMENT_SET_NO": 999, "REV_AT_EPOCH": 425, "BSTAR": 0.0018120124, "MEAN_MOTION_DOT": 0.0010707, "MEAN_MOTION_DDOT": 0}, "tle": {"line1": "1 66605U 25270T   25345.83335648  .00107070  00000+0  18120-2 0  9996", "line2": "2 66605  42.9994 197.9587 0001820 270.0034 124.3723 15.50485465  4251"}}, "geometry": {"type": "Point", "coordinates": [-3.8958892566093963, 17.252769108722056]}}, {"type": "Feature", "properties": {"norad_id": 66606, "name": "STARLINK-36063", "group": "last-30-days", "lat": 14.76638330436676, "lon": -0.8691566975616813, "alt_km": 413.07173100566524, "timestamp": "2025-12-12T05:47:27.526223+00:00", "meta": {"OBJECT_NAME": "STARLINK-36063", "OBJECT_ID": "2025-270U", "EPOCH": "2025-12-11T20:00:01.999872", "MEAN_MOTION": 15.50492067, "ECCENTRICITY": 0.00014826, "INCLINATION": 42.9993, "RA_OF_ASC_NODE": 197.9488, "ARG_OF_PERICENTER": 261.8649, "MEAN_ANOMALY": 136.353, "EPHEMERIS_TYPE": 0, "CLASSIFICATION_TYPE": "U", "NORAD_CAT_ID": 66606, "ELEMENT_SET_NO": 999, "REV_AT_EPOCH": 425, "BSTAR": 0.0011703471, "MEAN_MOTION_DOT": 0.00068709, "MEAN_MOTION_DDOT": 0}, "tle": {"line1": "1 66606U 25270U   25345.83335648  .00068709  00000+0  11703-2 0  9992", "line2": "2 66606  42.9993 197.9488 0001482 261.8649 136.3530 15.50492067  4250"}}, "geometry": {"type": "Point", "coordinates": [-0.8691566975616813, 14.76638330436676]}}, {"type": "Feature", "properties": {"norad_id": 66607, "name": "STARLINK-35993", "group": "last-30-days", "lat": 16.018262769254374, "lon": -2.3767762982473313, "alt_km": 413.0566029453512, "timestamp": "2025-12-12T05:47:27.526236+00:00", "meta": {"OBJECT_NAME": "STARLINK-35993", "OBJECT_ID": "2025-270V", "EPOCH": "2025-12-11T20:00:01.999872", "MEAN_MOTION": 15.5049243, "ECCENTRICITY": 0.00016892, "INCLINATION": 42.9994, "RA_OF_ASC_NODE": 197.9541, "ARG_OF_PERICENTER": 268.5893, "MEAN_ANOMALY": 127.7032, "EPHEMERIS_TYPE": 0, "CLASSIFICATION_TYPE": "U", "NORAD_CAT_ID": 66607, "ELEMENT_SET_NO": 999, "REV_AT_EPOCH": 415, "BSTAR": 0.0013187092, "MEAN_MOTION_DOT": 0.00077552, "MEAN_MOTION_DDOT": 0}, "tle": {"line1": "1 66607U 25270V   25345.83335648  .00077552  00000+0  13187-2 0  9997", "line2": "2 66607  42.9994 197.9541 0001689 268.5893 127.7032 15.50492430  4150"}}, "geometry": {"type": "Point", "coordinates": [-2.3767762982473313, 16.018262769254374]}}]}